OBJECT_NAME,OBJECT_ID,EPOCH,MEAN_MOTION,ECCENTRICITY,INCLINATION,RA_OF_ASC_NODE,ARG_OF_PERICENTER,MEAN_ANOMALY,EPHEMERIS_TYPE,CLASSIFICATION_TYPE,NORAD_CAT_ID,ELEMENT_SET_NO,REV_AT_EPOCH,BSTAR,MEAN_MOTION_DOT,MEAN_MOTION_DDOT
SCD 1,1993-009B,2026-06-27T14:30:24.188832,14.46122339,.00416404,24.9682,143.2535,248.1117,273.2741,0,U,22490,999,76262,.52568935E-4,.379E-5,0
TECHSAT 1B (GO-32),1998-043D,2026-06-27T22:50:56.923872,14.24430403,.00015875,99.0072,171.9824,143.0140,217.1148,0,U,25397,999,45286,.43505056E-4,.54E-6,0
SCD 2,1998-060A,2026-06-27T20:37:26.709888,14.45529611,.00165766,24.9967,6.3445,235.5476,147.5664,0,U,25504,999,46187,.53882855E-4,.376E-5,0
DLR-TUBSAT,1999-029B,2026-06-27T23:18:49.741920,14.52429357,.00134402,98.6699,174.8304,321.3165,38.7066,0,U,25757,999,43481,.34413535E-4,.92E-6,0
TERRA,1999-068A,2026-06-27T22:15:34.552800,14.61111043,.00024193,97.9451,228.0477,159.1965,13.8393,0,U,25994,999,41117,.83993535E-4,.369E-5,0
MAROC-TUBSAT,2001-056D,2026-06-27T17:24:55.853280,13.70262901,.00205625,99.8086,355.7840,115.1231,257.5868,0,U,27004,999,22763,.33991252E-4,-.17E-6,0
AQUA,2002-022A,2026-06-27T22:16:26.784192,14.62173506,.00007494,98.4281,148.4258,67.7686,317.6733,0,U,27424,999,28484,.15898251E-3,.751E-5,0
SHIYAN-1 (SY-1),2004-012A,2026-06-27T22:44:23.624160,15.34029995,.00046599,97.8697,257.7161,353.3982,6.7197,0,U,28220,999,21274,.4235591E-3,.13873E-3,0
AURA,2004-026A,2026-06-27T22:35:42.872352,14.61344375,.00011706,98.3421,135.4839,83.8173,276.3161,0,U,28376,999,16778,.15858557E-3,.735E-5,0
IRS-P5 (CARTOSAT-1),2005-017A,2026-06-27T19:34:25.692096,14.91075758,.00022687,97.5306,201.3980,66.9185,293.2273,0,U,28649,999,14540,.15538829E-3,.1486E-4,0
SINAH 1,2005-043D,2026-06-27T22:04:54.994944,14.64164599,.00133253,98.2872,313.3059,239.9907,119.9973,0,U,28893,999,10209,.71550558E-4,.327E-5,0
RESURS-DK 1,2006-021A,2026-06-27T19:26:28.816800,15.13259446,.00067322,69.9338,312.0550,286.8936,73.1492,0,U,29228,999,10418,.13443828E-3,.2289E-4,0
ARIRANG-2 (KOMPSAT-2),2006-031A,2026-06-27T23:13:51.216096,14.64666836,.0015574,97.8307,2.8933,43.4633,111.3408,0,U,29268,999,6305,.91639071E-4,.443E-5,0
LAPAN-TUBSAT,2007-001A,2026-06-27T23:03:56.340000,14.85962448,.00128622,98.1342,178.4278,144.9354,215.2710,0,U,29709,999,5275,.13220763E-3,.1098E-4,0
HAIYANG-1B,2007-010A,2026-06-27T21:54:00.940896,14.31029443,.00137364,98.3499,160.3420,164.3448,195.8163,0,U,31113,999,217,.49970674E-4,.9E-6,0
COSMO-SKYMED 1,2007-023A,2026-06-27T23:05:55.299840,14.97157259,.00017403,97.8859,10.9092,87.9129,272.2291,0,U,31598,999,3140,.23370643E-3,.264E-4,0
TERRASAR-X,2007-026A,2026-06-27T12:47:34.913472,15.19147529,.00017371,97.4454,186.0910,93.3237,266.8196,0,U,31698,999,5479,.47857474E-4,.938E-5,0
WORLDVIEW-1 (WV-1),2007-041A,2026-06-27T22:14:16.736640,15.24381507,.00012492,97.3886,298.5166,337.4022,22.7161,0,U,32060,999,4451,.2458548E-3,.5952E-4,0
YAOGAN-3,2007-055A,2026-06-28T00:01:00.949152,14.90818163,.00017319,97.8153,208.7716,81.0338,279.1076,0,U,32289,999,748,.64761358E-4,.582E-5,0
COSMO-SKYMED 2,2007-059A,2026-06-27T23:06:19.623168,14.82153674,.00013324,97.8887,2.4044,89.2963,270.8403,0,U,32376,999,360,.57207823E-4,.403E-5,0
RADARSAT-2,2007-061A,2026-06-27T22:52:42.140928,14.29983365,.00012966,98.5777,185.7315,86.0937,274.0394,0,U,32382,999,96749,-.38871878E-4,-.144E-5,0
CARTOSAT-2A,2008-021A,2026-06-27T22:29:25.344096,14.79252941,.00133433,97.7635,227.2786,77.7095,282.5610,0,U,32783,999,98039,.57699969E-4,.379E-5,0
HUANJING 1A (HJ-1A),2008-041A,2026-06-27T22:54:42.612768,14.84009074,.00205649,97.6681,164.3764,101.6856,258.6668,0,U,33320,999,96000,.93478178E-4,.73E-5,0
HUANJING 1B (HJ-1B),2008-041B,2026-06-27T22:17:14.987616,14.83335436,.00370734,97.6517,167.4905,145.9381,214.4224,0,U,33321,999,96000,.15643459E-3,.1245E-4,0
GEOEYE 1,2008-042A,2026-06-27T22:41:27.685248,14.64635322,.00051893,98.1335,252.7426,38.7271,321.4303,0,U,33331,999,95172,.90179746E-4,.432E-5,0
THEOS,2008-049A,2026-06-27T23:02:20.711616,14.20133420,.00011917,98.5573,235.8937,80.9079,279.2233,0,U,33396,999,91949,-.10035329E-3,-.256E-5,0
COSMO-SKYMED 3,2008-054A,2026-06-27T21:35:48.533856,15.07012981,.00146021,97.8269,37.6486,226.8858,133.1148,0,U,33412,999,95855,.3152182E-3,.4667E-4,0
YAOGAN-4,2008-061A,2026-06-27T19:49:40.936800,14.83220166,.00152655,97.9306,112.2579,40.8015,319.4338,0,U,33446,999,94724,.12999788E-3,.101E-4,0
GOSAT (IBUKI),2009-002A,2026-06-27T18:35:40.377696,14.67538367,.00012925,98.0903,289.7239,83.7273,276.4079,0,U,33492,999,93301,-.1716716E-5,-.58E-6,0
DEIMOS-1,2009-041A,2026-06-27T21:40:19.473888,14.75248187,.00022345,97.7407,335.6666,115.8427,244.3013,0,U,35681,999,90846,.86882835E-4,.54E-5,0
